OBJECT_NAME,OBJECT_ID,EPOCH,MEAN_MOTION,ECCENTRICITY,INCLINATION,RA_OF_ASC_NODE,ARG_OF_PERICENTER,MEAN_ANOMALY,EPHEMERIS_TYPE,CLASSIFICATION_TYPE,NORAD_CAT_ID,ELEMENT_SET_NO,REV_AT_EPOCH,BSTAR,MEAN_MOTION_DOT,MEAN_MOTION_DDOT
STARLINK-34928,2025-175X,2026-06-18T15:11:26.787552,15.05656871,.00027977,97.3439,41.1819,74.6085,285.5451,0,U,65195,999,4783,.26213762E-3,.3728E-4,0
STARLINK-34927,2025-175Y,2026-06-18T21:42:13.012992,15.05660484,.00022693,97.3455,41.4264,87.3287,272.8200,0,U,65196,999,4787,.24754076E-3,.3517E-4,0
STARLINK-34952,2025-175Z,2026-06-18T21:38:14.905824,15.05649348,.00027136,97.3460,41.4305,80.6021,279.5513,0,U,65197,999,4787,.50149256E-3,.7186E-4,0
STARLINK-34981,2025-176A,2026-06-18T22:50:18.697056,15.30191628,.00013834,53.1589,45.2409,78.6380,281.4776,0,U,65198,999,4858,.50230173E-3,.14543E-3,0
STARLINK-34821,2025-176B,2026-06-18T22:15:31.304160,15.34386235,.00008514,53.1581,40.8496,98.6637,261.4462,0,U,65199,999,4857,.1137998E-3,.3469E-4,0
STARLINK-34865,2025-176C,2026-06-18T21:54:27.080352,15.34413454,.00011431,53.1597,41.4698,87.7400,272.3734,0,U,65200,999,4863,.68842739E-3,.22965E-3,0
STARLINK-34843,2025-176D,2026-06-18T22:36:43.851744,15.34416311,.00020728,53.1588,40.9319,94.6539,265.4700,0,U,65201,999,4864,.68698337E-3,.22918E-3,0
STARLINK-34905,2025-176E,2026-06-18T22:39:46.358784,15.34411578,.00017178,53.1573,40.9465,87.6489,272.4711,0,U,65202,999,4864,.7915339E-3,.26471E-3,0
STARLINK-34914,2025-176F,2026-06-18T22:33:42.504192,15.34403731,.00010932,53.1582,40.9219,89.0868,271.0260,0,U,65203,999,4864,.61217171E-3,.20366E-3,0
STARLINK-34787,2025-176G,2026-06-18T22:12:29.393280,15.34381740,.00009609,53.1586,40.8301,96.7352,263.3760,0,U,65204,999,4864,-.14453789E-4,-.864E-5,0
STARLINK-34796,2025-176H,2026-06-18T09:02:53.016864,15.34389922,.0001568,53.1610,43.8098,75.8347,284.2830,0,U,65205,999,4855,.47811E-3,.15806E-3,0
STARLINK-34763,2025-176J,2026-06-18T08:56:49.036128,15.34382312,.0002043,53.1598,43.7820,82.2533,277.8702,0,U,65206,999,4854,.67124E-3,.22358E-3,0
STARLINK-34901,2025-176K,2026-06-18T21:48:23.755392,15.34404964,.00018107,53.1612,41.4368,85.0860,275.0349,0,U,65207,999,4863,.79185396E-3,.26477E-3,0
STARLINK-34841,2025-176L,2026-06-18T22:30:40.854240,15.34412489,.00020887,53.1590,40.9121,90.8721,269.2521,0,U,65208,999,4864,.81319884E-3,.2721E-3,0
STARLINK-34976,2025-176M,2026-06-18T21:24:09.326304,15.34400483,.00012083,53.1597,41.3299,96.5135,263.6005,0,U,65209,999,4863,.82903726E-3,.27738E-3,0
STARLINK-34941,2025-176N,2026-06-18T21:45:21.872160,15.34383303,.00012712,53.1613,41.4262,95.5727,264.5421,0,U,65210,999,4863,.56782516E-3,.18847E-3,0
STARLINK-34847,2025-176P,2026-06-18T22:47:52.662048,15.30193205,.00015515,53.1583,42.4006,111.9357,248.1808,0,U,65211,999,4862,.75122556E-3,.21951E-3,0
STARLINK-34897,2025-176Q,2026-06-18T21:15:04.032576,15.34387683,.00007671,53.1585,41.2914,84.0842,276.0248,0,U,65212,999,4863,.44087773E-3,.14543E-3,0
STARLINK-34907,2025-176R,2026-06-18T21:51:23.984064,15.34432345,.00010851,53.1607,41.4481,75.7704,284.3419,0,U,65213,999,4863,.74726394E-3,.24981E-3,0
STARLINK-34511,2025-176S,2026-06-18T21:42:20.092608,15.34405750,.00009938,53.1610,41.4118,99.1880,260.9235,0,U,65214,999,4857,.50827824E-3,.16838E-3,0
STARLINK-33913,2025-176T,2026-06-18T08:57:36.672768,15.34432399,.0001151,53.1605,45.9135,42.2916,317.8176,0,U,65215,999,4852,.67608E-3,.22558E-3,0
STARLINK-34302,2025-176U,2026-06-18T21:21:07.678944,15.34403614,.0001174,53.1595,41.3180,85.8373,274.2764,0,U,65216,999,4863,.76381283E-3,.25521E-3,0
STARLINK-34871,2025-176V,2026-06-18T22:21:35.808480,15.34393337,.00015087,53.1590,40.8732,105.8251,254.2918,0,U,65217,999,4864,.45504762E-3,.15026E-3,0
STARLINK-34833,2025-176W,2026-06-18T21:39:18.160992,15.34405422,.00022313,53.1590,41.3931,87.7824,272.3434,0,U,65218,999,4863,.68632238E-3,.22887E-3,0
STARLINK-34960,2025-176X,2026-06-18T22:06:34.508736,15.34400506,.00010584,53.1597,41.5132,62.7212,297.3898,0,U,65219,999,4863,.65591454E-3,.2185E-3,0
STARLINK-34603,2025-176Y,2026-06-18T22:27:39.192192,15.34414808,.00013987,53.1584,40.8954,84.2384,275.8778,0,U,65220,999,4864,.89631357E-3,.30043E-3,0
STARLINK-34974,2025-176Z,2026-06-18T08:38:38.368320,15.34389875,.0001777,53.1591,43.6983,90.3731,269.7475,0,U,65221,999,4855,.73189E-3,.24425E-3,0
STARLINK-34999,2025-176AA,2026-06-18T22:03:32.532192,15.34410641,.00011633,53.1601,41.5001,80.3518,279.7616,0,U,65222,999,4863,.62862975E-3,.20929E-3,0
STARLINK-34996,2025-176AB,2026-06-18T22:00:30.510720,15.34409147,.00012926,53.1600,41.4866,80.1633,279.9515,0,U,65223,999,4863,.62969491E-3,.20965E-3,0
STARLINK-34975,2025-176AC,2026-06-18T21:30:12.933792,15.34396514,.00013276,53.1601,41.3548,95.8542,264.2612,0,U,65224,999,4863,.71099389E-3,.23719E-3,0
