STARLINK-34928          
1 65195U 25175X   26169.63294893  .00003728  00000+0  26214-3 0  9991
2 65195  97.3439  41.1819 0002797  74.6085 285.5451 15.05656871 47838
STARLINK-34927          
1 65196U 25175Y   26169.90431728  .00003517  00000+0  24754-3 0  9995
2 65196  97.3455  41.4264 0002269  87.3287 272.8200 15.05660484 47873
STARLINK-34952          
1 65197U 25175Z   26169.90156141  .00007186  00000+0  50149-3 0  9992
2 65197  97.3460  41.4305 0002713  80.6021 279.5513 15.05649348 47879
STARLINK-34981          
1 65198U 25176A   26169.95160529  .00014543  00000+0  50230-3 0  9990
2 65198  53.1589  45.2409 0001383  78.6380 281.4776 15.30191628 48589
STARLINK-34821          
1 65199U 25176B   26169.92744565  .00003469  00000+0  11380-3 0  9994
2 65199  53.1581  40.8496 0000851  98.6637 261.4462 15.34386235 48578
STARLINK-34865          
1 65200U 25176C   26169.91281343  .00022965  00000+0  68843-3 0  9994
2 65200  53.1597  41.4698 0001143  87.7400 272.3734 15.34413454 48635
STARLINK-34843          
1 65201U 25176D   26169.94217421  .00022918  00000+0  68698-3 0  9990
2 65201  53.1588  40.9319 0002072  94.6539 265.4700 15.34416311 48644
STARLINK-34905          
1 65202U 25176E   26169.94428656  .00026471  00000+0  79153-3 0  9991
2 65202  53.1573  40.9465 0001717  87.6489 272.4711 15.34411578 48642
STARLINK-34914          
1 65203U 25176F   26169.94007528  .00020366  00000+0  61217-3 0  9992
2 65203  53.1582  40.9219 0001093  89.0868 271.0260 15.34403731 48640
STARLINK-34787          
1 65204U 25176G   26169.92534020 -.00000864  00000+0 -14454-4 0  9998
2 65204  53.1586  40.8301 0000960  96.7352 263.3760 15.34381740 48645
STARLINK-34796          
1 65205U 25176H   26169.37700251  .00015806  00000+0  47811-3 0  9991
2 65205  53.1610  43.8098 0001568  75.8347 284.2830 15.34389922 48557
STARLINK-34763          
1 65206U 25176J   26169.37278977  .00022358  00000+0  67124-3 0  9996
2 65206  53.1598  43.7820 0002043  82.2533 277.8702 15.34382312 48544
STARLINK-34901          
1 65207U 25176K   26169.90860828  .00026477  00000+0  79185-3 0  9994
2 65207  53.1612  41.4368 0001810  85.0860 275.0349 15.34404964 48634
STARLINK-34841          
1 65208U 25176L   26169.93797285  .00027210  00000+0  81320-3 0  9994
2 65208  53.1590  40.9121 0002088  90.8721 269.2521 15.34412489 48648
STARLINK-34976          
1 65209U 25176M   26169.89177461  .00027738  00000+0  82904-3 0  9992
2 65209  53.1597  41.3299 0001208  96.5135 263.6005 15.34400483 48637
STARLINK-34941          
1 65210U 25176N   26169.90650315  .00018847  00000+0  56783-3 0  9997
2 65210  53.1613  41.4262 0001271  95.5727 264.5421 15.34383303 48638
STARLINK-34847          
1 65211U 25176P   26169.94991507  .00021951  00000+0  75123-3 0  9992
2 65211  53.1583  42.4006 0001551 111.9357 248.1808 15.30193205 48627
STARLINK-34897          
1 65212U 25176Q   26169.88546334  .00014543  00000+0  44088-3 0  9995
2 65212  53.1585  41.2914 0000767  84.0842 276.0248 15.34387683 48630
STARLINK-34907          
1 65213U 25176R   26169.91069426  .00024981  00000+0  74726-3 0  9991
2 65213  53.1607  41.4481 0001085  75.7704 284.3419 15.34432345 48633
STARLINK-34511          
1 65214U 25176S   26169.90439922  .00016838  00000+0  50828-3 0  9992
2 65214  53.1610  41.4118 0000993  99.1880 260.9235 15.34405750 48576
STARLINK-33913          
1 65215U 25176T   26169.37334112  .00022558  00000+0  67608-3 0  9999
2 65215  53.1605  45.9135 0001151  42.2916 317.8176 15.34432399 48525
STARLINK-34302          
1 65216U 25176U   26169.88967221  .00025521  00000+0  76381-3 0  9990
2 65216  53.1595  41.3180 0001174  85.8373 274.2764 15.34403614 48638
STARLINK-34871          
1 65217U 25176V   26169.93166445  .00015026  00000+0  45505-3 0  9999
2 65217  53.1590  40.8732 0001508 105.8251 254.2918 15.34393337 48640
STARLINK-34833          
1 65218U 25176W   26169.90229353  .00022887  00000+0  68632-3 0  9994
2 65218  53.1590  41.3931 0002231  87.7824 272.3434 15.34405422 48638
STARLINK-34960          
1 65219U 25176X   26169.92123274  .00021850  00000+0  65591-3 0  9992
2 65219  53.1597  41.5132 0001058  62.7212 297.3898 15.34400506 48630
STARLINK-34603          
1 65220U 25176Y   26169.93587028  .00030043  00000+0  89631-3 0  9991
2 65220  53.1584  40.8954 0001398  84.2384 275.8778 15.34414808 48647
STARLINK-34974          
1 65221U 25176Z   26169.36016630  .00024425  00000+0  73189-3 0  9993
2 65221  53.1591  43.6983 0001777  90.3731 269.7475 15.34389875 48555
STARLINK-34999          
1 65222U 25176AA  26169.91912653  .00020929  00000+0  62863-3 0  9997
2 65222  53.1601  41.5001 0001163  80.3518 279.7616 15.34410641 48630
STARLINK-34996          
1 65223U 25176AB  26169.91701980  .00020965  00000+0  62969-3 0  9994
2 65223  53.1600  41.4866 0001292  80.1633 279.9515 15.34409147 48636
STARLINK-34975          
1 65224U 25176AC  26169.89598303  .00023719  00000+0  71099-3 0  9999
2 65224  53.1601  41.3548 0001327  95.8542 264.2612 15.34396514 48633
